QIANFAN-57              
1 62787U 25016C   25290.31398571  .00000092  00000+0  12414-3 0  9994
2 62787  88.9745 109.0249 0001298  63.6598 296.4687 13.50975511 39589
QIANFAN-58              
1 62788U 25016D   25290.28514664  .00000081  00000+0  10584-3 0  9998
2 62788  88.9714 108.8769 0014887 140.9655 219.2574 13.50975073 39627
QIANFAN-59              
1 62789U 25016E   25290.30981890  .00000091  00000+0  12245-3 0  9998
2 62789  88.9738 108.9346 0015180 144.5620 215.6543 13.50974385 39626
QIANFAN-60              
1 62790U 25016F   25273.45632892  .00000063  00000+0  77135-4 0  9991
2 62790  88.9732 110.6637 0014892 189.3455 170.7422 13.52524324 37336
QIANFAN-61              
1 62791U 25016G   25290.30156664  .00000100  00000+0  13557-3 0  9992
2 62791  88.9786 109.0422 0015750 140.8767 219.3526 13.50974747 39627
QIANFAN-62              
1 62792U 25016H   25290.30581873  .00000084  00000+0  11097-3 0  9995
2 62792  88.9733 108.9407 0017114 141.6527 218.5844 13.50968614 39619
QIANFAN-63              
1 62793U 25016J   25290.25633755  .00000086  00000+0  11380-3 0  9994
2 62793  88.9740 108.8936 0017018 146.8188 213.4034 13.50971682 39644
QIANFAN-64              
1 62794U 25016K   25290.29747405  .00000096  00000+0  12906-3 0  9993
2 62794  88.9726 108.8710 0015152 139.4231 220.8053 13.50973304 39649
